{
  "type": "FeatureCollection",
  "features": [
    {
      "type": "Feature",
      "properties": {
        "norad_id": 67117,
        "name": "STARLINK-35674",
        "group": "last-30-days",
        "lat": -10.563024964939428,
        "lon": 63.40851368787731,
        "alt_km": 334.6140571822307,
        "timestamp": "2025-12-26T13:39:17.668882+00:00",
        "meta_object_name": "STARLINK-35674",
        "meta_object_id": "2025-299R",
        "meta_epoch": "2025-12-26T06:00:02.999808",
        "meta_mean_motion": 15.80035566,
        "meta_eccentricity": 0.00014763,
        "meta_inclination": 42.9976,
        "meta_ra_of_asc_node": 233.8115,
        "meta_arg_of_pericenter": 266.4744,
        "meta_mean_anomaly": 273.514,
        "meta_ephemeris_type": 0,
        "meta_classification_type": "U",
        "meta_norad_cat_id": 67117,
        "meta_element_set_no": 999,
        "meta_rev_at_epoch": 277,
        "meta_bstar": -0.01072232,
        "meta_mean_motion_dot": -0.01809463,
        "meta_mean_motion_ddot": 0,
        "tle_line1": "1 67117U 25299R   25360.25003472 -.01809463  00000+0 -10722-1 0  9993",
        "tle_line2": "2 67117  42.9976 233.8115 0001476 266.4744 273.5140 15.80035566  2772"
      },
      "geometry": {
        "type": "Point",
        "coordinates": [
          63.40851368787731,
          -10.563024964939428
        ]
      }
    },
    {
      "type": "Feature",
      "properties": {
        "norad_id": 67118,
        "name": "STARLINK-35701",
        "group": "last-30-days",
        "lat": -11.742444824055399,
        "lon": 64.74974995862891,
        "alt_km": 334.9559838324285,
        "timestamp": "2025-12-26T13:39:17.668896+00:00",
        "meta_object_name": "STARLINK-35701",
        "meta_object_id": "2025-299S",
        "meta_epoch": "2025-12-26T06:00:02.999808",
        "meta_mean_motion": 15.80038933,
        "meta_eccentricity": 0.00015098,
        "meta_inclination": 42.9974,
        "meta_ra_of_asc_node": 233.8071,
        "meta_arg_of_pericenter": 278.1994,
        "meta_mean_anomaly": 263.5561,
        "meta_ephemeris_type": 0,
        "meta_classification_type": "U",
        "meta_norad_cat_id": 67118,
        "meta_element_set_no": 999,
        "meta_rev_at_epoch": 293,
        "meta_bstar": -0.010704338,
        "meta_mean_motion_dot": -0.0180708,
        "meta_mean_motion_ddot": 0,
        "tle_line1": "1 67118U 25299S   25360.25003472 -.01807080  00000+0 -10704-1 0  9997",
        "tle_line2": "2 67118  42.9974 233.8071 0001509 278.1994 263.5561 15.80038933  2931"
      },
      "geometry": {
        "type": "Point",
        "coordinates": [
          64.74974995862891,
          -11.742444824055399
        ]
      }
    },
    {
      "type": "Feature",
      "properties": {
        "norad_id": 67119,
        "name": "STARLINK-36179",
        "group": "last-30-days",
        "lat": -13.70494463244027,
        "lon": 67.0239350910632,
        "alt_km": 334.78546940009255,
        "timestamp": "2025-12-26T13:39:17.668906+00:00",
        "meta_object_name": "STARLINK-36179",
        "meta_object_id": "2025-299T",
        "meta_epoch": "2025-12-26T06:00:02.999808",
        "meta_mean_motion": 15.80074785,
        "meta_eccentricity": 0.00015194,
        "meta_inclination": 42.9971,
        "meta_ra_of_asc_node": 233.7991,
        "meta_arg_of_pericenter": 269.0655,
        "meta_mean_anomaly": 275.6178,
        "meta_ephemeris_type": 0,
        "meta_classification_type": "U",
        "meta_norad_cat_id": 67119,
        "meta_element_set_no": 999,
        "meta_rev_at_epoch": 298,
        "meta_bstar": -0.010704185,
        "meta_mean_motion_dot": -0.01809705,
        "meta_mean_motion_ddot": 0,
        "tle_line1": "1 67119U 25299T   25360.25003472 -.01809705  00000+0 -10704-1 0  9994",
        "tle_line2": "2 67119  42.9971 233.7991 0001519 269.0655 275.6178 15.80074785  2981"
      },
      "geometry": {
        "type": "Point",
        "coordinates": [
          67.0239350910632,
          -13.70494463244027
        ]
      }
    },
    {
      "type": "Feature",
      "properties": {
        "norad_id": 67120,
        "name": "STARLINK-36217",
        "group": "last-30-days",
        "lat": -12.777196901659554,
        "lon": 65.9417079947549,
        "alt_km": 334.88843513800384,
        "timestamp": "2025-12-26T13:39:17.668916+00:00",
        "meta_object_name": "STARLINK-36217",
        "meta_object_id": "2025-299U",
        "meta_epoch": "2025-12-26T06:00:02.999808",
        "meta_mean_motion": 15.80048237,
        "meta_eccentricity": 0.0001577,
        "meta_inclination": 42.9975,
        "meta_ra_of_asc_node": 233.8031,
        "meta_arg_of_pericenter": 274.2026,
        "meta_mean_anomaly": 269.1017,
        "meta_ephemeris_type": 0,
        "meta_classification_type": "U",
        "meta_norad_cat_id": 67120,
        "meta_element_set_no": 999,
        "meta_rev_at_epoch": 298,
        "meta_bstar": -0.010663194,
        "meta_mean_motion_dot": -0.0180173,
        "meta_mean_motion_ddot": 0,
        "tle_line1": "1 67120U 25299U   25360.25003472 -.01801730  00000+0 -10663-1 0  9990",
        "tle_line2": "2 67120  42.9975 233.8031 0001577 274.2026 269.1017 15.80048237  2980"
      },
      "geometry": {
        "type": "Point",
        "coordinates": [
          65.9417079947549,
          -12.777196901659554
        ]
      }
    },
    {
      "type": "Feature",
      "properties": {
        "norad_id": 67121,
        "name": "STARLINK-36124",
        "group": "last-30-days",
        "lat": -16.006781909054638,
        "lon": 69.77462408772507,
        "alt_km": 335.1040919406487,
        "timestamp": "2025-12-26T13:39:17.668926+00:00",
        "meta_object_name": "STARLINK-36124",
        "meta_object_id": "2025-299V",
        "meta_epoch": "2025-12-26T06:00:02.999808",
        "meta_mean_motion": 15.80080771,
        "meta_eccentricity": 0.0001527,
        "meta_inclination": 42.9973,
        "meta_ra_of_asc_node": 233.7906,
        "meta_arg_of_pericenter": 277.6559,
        "meta_mean_anomaly": 270.5426,
        "meta_ephemeris_type": 0,
        "meta_classification_type": "U",
        "meta_norad_cat_id": 67121,
        "meta_element_set_no": 999,
        "meta_rev_at_epoch": 298,
        "meta_bstar": -0.010654564,
        "meta_mean_motion_dot": -0.01802794,
        "meta_mean_motion_ddot": 0,
        "tle_line1": "1 67121U 25299V   25360.25003472 -.01802794  00000+0 -10655-1 0  9993",
        "tle_line2": "2 67121  42.9973 233.7906 0001527 277.6559 270.5426 15.80080771  2981"
      },
      "geometry": {
        "type": "Point",
        "coordinates": [
          69.77462408772507,
          -16.006781909054638
        ]
      }
    },
    {
      "type": "Feature",
      "properties": {
        "norad_id": 67122,
        "name": "STARLINK-36188",
        "group": "last-30-days",
        "lat": -17.018661993784843,
        "lon": 71.01720682865486,
        "alt_km": 334.87787847972504,
        "timestamp": "2025-12-26T13:39:17.668936+00:00",
        "meta_object_name": "STARLINK-36188",
        "meta_object_id": "2025-299W",
        "meta_epoch": "2025-12-26T06:00:02.999808",
        "meta_mean_motion": 15.8009961,
        "meta_eccentricity": 0.00015654,
        "meta_inclination": 42.9974,
        "meta_ra_of_asc_node": 233.787,
        "meta_arg_of_pericenter": 267.3606,
        "meta_mean_anomaly": 282.3834,
        "meta_ephemeris_type": 0,
        "meta_classification_type": "U",
        "meta_norad_cat_id": 67122,
        "meta_element_set_no": 999,
        "meta_rev_at_epoch": 298,
        "meta_bstar": -0.01067154,
        "meta_mean_motion_dot": -0.01806731,
        "meta_mean_motion_ddot": 0,
        "tle_line1": "1 67122U 25299W   25360.25003472 -.01806731  00000+0 -10672-1 0  9998",
        "tle_line2": "2 67122  42.9974 233.7870 0001565 267.3606 282.3834 15.80099610  2980"
      },
      "geometry": {
        "type": "Point",
        "coordinates": [
          71.01720682865486,
          -17.018661993784843
        ]
      }
    },
    {
      "type": "Feature",
      "properties": {
        "norad_id": 67123,
        "name": "STARLINK-36151",
        "group": "last-30-days",
        "lat": -14.8439701732626,
        "lon": 68.37326229859788,
        "alt_km": 334.80823185303507,
        "timestamp": "2025-12-26T13:39:17.668948+00:00",
        "meta_object_name": "STARLINK-36151",
        "meta_object_id": "2025-299X",
        "meta_epoch": "2025-12-26T06:00:02.999808",
        "meta_mean_motion": 15.80081559,
        "meta_eccentricity": 0.00015577,
        "meta_inclination": 42.9976,
        "meta_ra_of_asc_node": 233.7956,
        "meta_arg_of_pericenter": 268.0216,
        "meta_mean_anomaly": 278.3908,
        "meta_ephemeris_type": 0,
        "meta_classification_type": "U",
        "meta_norad_cat_id": 67123,
        "meta_element_set_no": 999,
        "meta_rev_at_epoch": 298,
        "meta_bstar": -0.010689818,
        "meta_mean_motion_dot": -0.01808107,
        "meta_mean_motion_ddot": 0,
        "tle_line1": "1 67123U 25299X   25360.25003472 -.01808107  00000+0 -10690-1 0  9998",
        "tle_line2": "2 67123  42.9976 233.7956 0001557 268.0216 278.3908 15.80081559  2984"
      },
      "geometry": {
        "type": "Point",
        "coordinates": [
          68.37326229859788,
          -14.8439701732626
        ]
      }
    }
  ]
}